BEESAT-4                
1 41619U 16040W   21292.73184093  .00003813  00000-0  14959-3 0  9999
2 41619  97.2555 345.2976 0008850 247.4980 112.5322 15.26297101283965
CAS-2T & KS-1Q          
1 41847U 16066G   21292.79716947  .00000324  00000-0  59240-4 0  9992
2 41847  98.5873 352.3590 0364579 209.0006 149.0488 14.38256166259758
NAYIF-1 (EO-88)         
1 42017U 17008BX  21292.74471508  .00004613  00000-0  16603-3 0  9995
2 42017  97.3040 358.0958 0006639  41.4538 318.7204 15.29062206260248
ZHUHAI-1 02 (CAS-4B)    
1 42759U 17034B   21293.16667174  .00001208  00000-0  85348-4 0  9990
2 42759  43.0167 215.3452 0008611 232.3926 269.9521 15.10459228240002
ZHUHAI-1 01 (CAS-4A)    
1 42761U 17034D   21293.14891875  .00001085  00000-0  77865-4 0  9996
2 42761  43.0176 214.4067 0009006 233.4484 260.7841 15.10544744240009
MAX VALIER SAT          
1 42778U 17036P   21292.87265667  .00003000  00000-0  12598-3 0  9999
2 42778  97.2416 337.3460 0013495  97.2652 263.0120 15.24114595240230
RADFXSAT (FOX-1B)       
1 43017U 17073E   21292.69342948  .00001208  00000-0  98558-4 0  9994
2 43017  97.6933 191.6853 0252415 254.8582 102.4585 14.79861491211492
FOX-1D (AO-92)          
1 43137U 18004AC  21292.76465236  .00003129  00000-0  12498-3 0  9998
2 43137  97.3972   5.4953 0009989 127.1878 233.0274 15.25840412209613
DIWATA-2B               
1 43678U 18084H   21293.01242699  .00000210  00000-0  26631-4 0  9994
2 43678  97.9395  59.0514 0010074   8.6450 351.4898 14.91811168162008
ES'HAIL 2               
1 43700U 18090A   21292.82549350  .00000138  00000-0  00000-0 0  9996
2 43700   0.0140 257.1326 0002503 333.9276 120.4505  1.00272972 10615
FOX-1CLIFF (AO-95)      
1 43770U 18099N   21292.70832138  .00000319  00000-0  33903-4 0  9991
2 43770  97.6532   0.0826 0014508   7.9579 352.1869 14.95481929157027
ITASAT 1                
1 43786U 18099AE  21293.13909689  .00001131  00000-0  10640-3 0  9997
2 43786  97.6555   1.2679 0014848 359.7840   0.3373 14.95757134157121
JY1SAT (JO-97)          
1 43803U 18099AX  21292.74679267  .00001193  00000-0  11113-3 0  9993
2 43803  97.6519   0.6245 0014841   1.2306 358.8949 14.96037611157078
UWE-4                   
1 43880U 18111E   21292.71367269  .00000377  00000-0  37714-4 0  9995
2 43880  97.6770 198.2662 0013594  51.3636 308.8800 14.97049920153675
NEXUS (FO-99)           
1 43937U 19003F   21293.10333036  .00004130  00000-0  16023-3 0  9998
2 43937  97.1638 331.2527 0020968 291.7682  68.1326 15.26451746153270
PSAT2 (NO-104)          
1 44354U 19036R   21292.56143876  .00033024  00000-0  41579-3 0  9996
2 44354  28.5288  17.0392 0308119 185.6787 174.0263 15.18076652127814
BRICSAT2 (NO-103)       
1 44355U 19036S   21292.37238446  .00078329 -51437-5  71564-3 0  9994
2 44355  28.5267 309.7528 0223453 295.1102  62.6467 15.40571108128471
JAISAT-1                
1 44419U 19038F   21292.95968396  .00002679  00000-0  14962-3 0  9993
2 44419  97.6039 257.3330 0019176 240.8464 119.0849 15.14261261126632
DUCHIFAT-3              
1 44854U 19089C   21293.10744798  .00001169  00000-0  99248-4 0  9992
2 44854  36.9651  83.3555 0007480  56.4687 303.6770 14.99706449101822
CAS-6 (TO-108)          
1 44881U 19093C   21293.21652291  .00000170  00000-0  28384-4 0  9999
2 44881  97.9157  10.6356 0013720 245.8853 114.0931 14.81494627 99209
RS-44 & BREEZE-KM R/B   
1 44909U 19096E   21292.78087133  .00000003  00000-0 -35700-4 0  9997
2 44909  82.5264  30.1924 0217887 162.2056 198.6832 12.79711236 84771
ORBITAL FACTORY 2 (OF-2)
1 45113U 19071C   21292.90979011  .00007195  00000-0  20556-3 0  9997
2 45113  51.6400 153.5952 0011331  27.7510 332.4076 15.37044655 96306
HUSKYSAT-1 (HO-107)     
1 45119U 19071J   21292.92230029  .00005976  00000-0  17300-3 0  9992
2 45119  51.6400 152.9194 0010785  24.2762 335.8727 15.36970722 96308
BY70-2                  
1 45857U 20042B   21293.21234373  .00002252  00000-0  32324-3 0  9997
2 45857  97.9765   7.6471 0011860 165.6493 194.5050 14.77420805 69961
SALSAT                  
1 46495U 20068K   21292.91351477  .00001415  00000-0  10779-3 0  9995
2 46495  97.6983 229.7228 0017651  14.4020 345.7707 15.03600529 58035
BY70-3                  
1 46839U 20079N   21293.15084215  .00006195  00000-0  18569-3 0  9994
2 46839  97.2296   4.5389 0008573 114.9331 301.3421 15.34808063 53326
RADFXSAT-2 (AO-109)     
1 47311U 21002C   21293.12055845  .00003176  00000-0  14630-3 0  9992
2 47311  60.6851 184.3465 0040104 110.9547 249.5839 15.22189410 41852
UVSQ-SAT                
1 47438U 21006AB  21292.75888188  .00001602  00000-0  92955-4 0  9997
2 47438  97.4741 351.6891 0013401  35.3705 324.8412 15.13496602 40853
DIY-1 (ARDUIQUBE)       
1 47963U 21022AH  21292.54654301  .00005011  00000-0  32834-3 0  9990
2 47963  97.5459 192.6535 0017637 239.5076 120.4411 15.08036432 30599
